STARLINK-1260
1 45404U 20019AW  26092.07494414  .00065664  00000+0  21123-2 0  9998
2 45404  53.1614  20.5593 0001587 143.4564 216.6546 15.31653637333550
STARLINK-1265
1 45406U 20019AY  26092.20851478  .00081792  00000+0  26198-2 0  9999
2 45406  53.1608  20.0413 0001929 135.1174 224.9984 15.31686628333572
STARLINK-1762
1 46342U 20062T   26092.83347156  .00111097  00000+0  35393-2 0  9998
2 46342  53.1575 258.7802 0000594   5.7969 354.3039 15.31695616308093
STARLINK-1802
1 46702U 20073AJ  26092.41172181  .00080391  00000+0  25788-2 0  9997
2 46702  53.1582 106.8090 0002410  86.2907 273.8370 15.31645530301117
STARLINK-2752
1 48692U 21044BG  26092.34177609  .00007268  00000+0  24573-3 0  9992
2 48692  53.1591 325.3321 0001290  81.5591 278.5557 15.31703087267981
